{"type": "FeatureCollection", "features": [ {"type": "Feature", "properties": {"norad_id": 43622, "name": "BEIDOU-3 M13 (C32)", "group": "beidou", "lat": 56.48906078175958, "lon": 158.53994705756864, "alt_km": 21536.443353256836, "timestamp": "2025-12-21T09:37:22.920057+00:00", "meta": {"OBJECT_NAME": "BEIDOU-3 M13 (C32)", "OBJECT_ID": "2018-072A", "EPOCH": "2025-12-19T15:44:25.442592", "MEAN_MOTION": 1.86231092, "ECCENTRICITY": 0.0006094, "INCLINATION": 56.4653, "RA_OF_ASC_NODE": 68.5911, "ARG_OF_PERICENTER": 298.8206, "MEAN_ANOMALY": 61.1557, "EPHEMERIS_TYPE": 0, "CLASSIFICATION_TYPE": "U", "NORAD_CAT_ID": 43622, "ELEMENT_SET_NO": 999, "REV_AT_EPOCH": 4931, "BSTAR": 0, "MEAN_MOTION_DOT": -5.1e-07, "MEAN_MOTION_DDOT": 0}, "tle": {"line1": "1 43622U 18072A   25353.65585003 -.00000051  00000+0  00000+0 0  9990", "line2": "2 43622  56.4653  68.5911 0006094 298.8206  61.1557  1.86231092 49316"}}, "geometry": {"type": "Point", "coordinates": [158.53994705756864, 56.48906078175958]}}, {"type": "Feature", "properties": {"norad_id": 43623, "name": "BEIDOU-3 M14 (C33)", "group": "beidou", "lat": -0.16885541038445637, "lon": -111.34223338536509, "alt_km": 21536.694209341258, "timestamp": "2025-12-21T09:37:22.920068+00:00", "meta": {"OBJECT_NAME": "BEIDOU-3 M14 (C33)", "OBJECT_ID": "2018-072B", "EPOCH": "2025-12-20T14:17:08.126880", "MEAN_MOTION": 1.86231125, "ECCENTRICITY": 0.0003511, "INCLINATION": 56.4674, "RA_OF_ASC_NODE": 68.5539, "ARG_OF_PERICENTER": 328.3034, "MEAN_ANOMALY": 31.7182, "EPHEMERIS_TYPE": 0, "CLASSIFICATION_TYPE": "U", "NORAD_CAT_ID": 43623, "ELEMENT_SET_NO": 999, "REV_AT_EPOCH": 4932, "BSTAR": 0, "MEAN_MOTION_DOT": -4.2e-07, "MEAN_MOTION_DDOT": 0}, "tle": {"line1": "1 43623U 18072B   25354.59523295 -.00000042  00000+0  00000+0 0  9990", "line2": "2 43623  56.4674  68.5539 0003511 328.3034  31.7182  1.86231125 49320"}}, "geometry": {"type": "Point", "coordinates": [-111.34223338536509, -0.16885541038445637]}}, {"type": "Feature", "properties": {"norad_id": 43647, "name": "BEIDOU-3 M16 (C35)", "group": "beidou", "lat": 51.49172799654108, "lon": 10.918199725125548, "alt_km": 21509.965719565567, "timestamp": "2025-12-21T09:37:22.920079+00:00", "meta": {"OBJECT_NAME": "BEIDOU-3 M16 (C35)", "OBJECT_ID": "2018-078A", "EPOCH": "2025-12-20T18:04:14.060064", "MEAN_MOTION": 1.86232385, "ECCENTRICITY": 0.00073586, "INCLINATION": 54.2545, "RA_OF_ASC_NODE": 306.2412, "ARG_OF_PERICENTER": 20.0204, "MEAN_ANOMALY": 340.0034, "EPHEMERIS_TYPE": 0, "CLASSIFICATION_TYPE": "U", "NORAD_CAT_ID": 43647, "ELEMENT_SET_NO": 999, "REV_AT_EPOCH": 4883, "BSTAR": 0, "MEAN_MOTION_DOT": -6.5e-07, "MEAN_MOTION_DDOT": 0}, "tle": {"line1": "1 43647U 18078A   25354.75294051 -.00000065  00000+0  00000+0 0  9990", "line2": "2 43647  54.2545 306.2412 0007358  20.0204 340.0034  1.86232385 48835"}}, "geometry": {"type": "Point", "coordinates": [10.918199725125548, 51.49172799654108]}}, {"type": "Feature", "properties": {"norad_id": 43648, "name": "BEIDOU-3 M15 (C34)", "group": "beidou", "lat": -9.861082986973274, "lon": -60.989680084121595, "alt_km": 21519.997460448307, "timestamp": "2025-12-21T09:37:22.920090+00:00", "meta": {"OBJECT_NAME": "BEIDOU-3 M15 (C34)", "OBJECT_ID": "2018-078B", "EPOCH": "2025-12-20T21:10:18.962688", "MEAN_MOTION": 1.8623233, "ECCENTRICITY": 0.0003994, "INCLINATION": 54.2503, "RA_OF_ASC_NODE": 306.237, "ARG_OF_PERICENTER": 19.942, "MEAN_ANOMALY": 340.0692, "EPHEMERIS_TYPE": 0, "CLASSIFICATION_TYPE": "U", "NORAD_CAT_ID": 43648, "ELEMENT_SET_NO": 999, "REV_AT_EPOCH": 4885, "BSTAR": 0, "MEAN_MOTION_DOT": -6.5e-07, "MEAN_MOTION_DDOT": 0}, "tle": {"line1": "1 43648U 18078B   25354.88216392 -.00000065  00000+0  00000+0 0  9997", "line2": "2 43648  54.2503 306.2370 0003994  19.9420 340.0692  1.86232330 48854"}}, "geometry": {"type": "Point", "coordinates": [-60.989680084121595, -9.861082986973274]}}, {"type": "Feature", "properties": {"norad_id": 43683, "name": "BEIDOU-3 G1 (C59)", "group": "beidou", "lat": -2.622576705187659, "lon": 14.560577822657464, "alt_km": 35792.01550607299, "timestamp": "2025-12-21T09:37:22.920102+00:00", "meta": {"OBJECT_NAME": "BEIDOU-3 G1 (C59)", "OBJECT_ID": "2018-085A", "EPOCH": "2025-12-21T03:35:19.372992", "MEAN_MOTION": 1.00268246, "ECCENTRICITY": 0.0001567, "INCLINATION": 2.6277, "RA_OF_ASC_NODE": 102.7198, "ARG_OF_PERICENTER": 45.9778, "MEAN_ANOMALY": 135.1179, "EPHEMERIS_TYPE": 0, "CLASSIFICATION_TYPE": "U", "NORAD_CAT_ID": 43683, "ELEMENT_SET_NO": 999, "REV_AT_EPOCH": 2627, "BSTAR": 0, "MEAN_MOTION_DOT": -2.57e-06, "MEAN_MOTION_DDOT": 0}, "tle": {"line1": "1 43683U 18085A   25355.14952978 -.00000257  00000+0  00000+0 0  9994", "line2": "2 43683   2.6277 102.7198 0001567  45.9778 135.1179  1.00268246 26270"}}, "geometry": {"type": "Point", "coordinates": [14.560577822657464, -2.622576705187659]}}, {"type": "Feature", "properties": {"norad_id": 43706, "name": "BEIDOU-3 M17 (C36)", "group": "beidou", "lat": -45.35014360891301, "lon": 55.36237130654796, "alt_km": 21526.698181396343, "timestamp": "2025-12-21T09:37:22.920113+00:00", "meta": {"OBJECT_NAME": "BEIDOU-3 M17 (C36)", "OBJECT_ID": "2018-093A", "EPOCH": "2025-12-20T12:04:20.840736", "MEAN_MOTION": 1.86228485, "ECCENTRICITY": 0.00060883, "INCLINATION": 54.1751, "RA_OF_ASC_NODE": 188.3582, "ARG_OF_PERICENTER": 307.8758, "MEAN_ANOMALY": 51.559, "EPHEMERIS_TYPE": 0, "CLASSIFICATION_TYPE": "U", "NORAD_CAT_ID": 43706, "ELEMENT_SET_NO": 999, "REV_AT_EPOCH": 4820, "BSTAR": 0, "MEAN_MOTION_DOT": 9.7e-07, "MEAN_MOTION_DDOT": 0}, "tle": {"line1": "1 43706U 18093A   25354.50301899  .00000097  00000+0  00000+0 0  9999", "line2": "2 43706  54.1751 188.3582 0006088 307.8758  51.5590  1.86228485 48203"}}, "geometry": {"type": "Point", "coordinates": [55.36237130654796, -45.35014360891301]}}, {"type": "Feature", "properties": {"norad_id": 43707, "name": "BEIDOU-3 M18 (C37)", "group": "beidou", "lat": -20.640220511531236, "lon": 172.52485425593878, "alt_km": 21514.93245008253, "timestamp": "2025-12-21T09:37:22.920125+00:00", "meta": {"OBJECT_NAME": "BEIDOU-3 M18 (C37)", "OBJECT_ID": "2018-093B", "EPOCH": "2025-12-20T21:39:28.587744", "MEAN_MOTION": 1.86226757, "ECCENTRICITY": 0.0006217, "INCLINATION": 54.1741, "RA_OF_ASC_NODE": 188.3365, "ARG_OF_PERICENTER": 353.7926, "MEAN_ANOMALY": 6.2524, "EPHEMERIS_TYPE": 0, "CLASSIFICATION_TYPE": "U", "NORAD_CAT_ID": 43707, "ELEMENT_SET_NO": 999, "REV_AT_EPOCH": 4821, "BSTAR": 0, "MEAN_MOTION_DOT": 9.5e-07, "MEAN_MOTION_DDOT": 0}, "tle": {"line1": "1 43707U 18093B   25354.90241421  .00000095  00000+0  00000+0 0  9996", "line2": "2 43707  54.1741 188.3365 0006217 353.7926   6.2524  1.86226757 48218"}}, "geometry": {"type": "Point", "coordinates": [172.52485425593878, -20.640220511531236]}}, {"type": "Feature", "properties": {"norad_id": 44231, "name": "BEIDOU-2 G8 (C01)", "group": "beidou", "lat": -1.381800499254506, "lon": 19.103376586983284, "alt_km": 35761.15538657559, "timestamp": "2025-12-21T09:37:22.920136+00:00", "meta": {"OBJECT_NAME": "BEIDOU-2 G8 (C01)", "OBJECT_ID": "2019-027A", "EPOCH": "2025-12-19T12:14:23.449632", "MEAN_MOTION": 1.00276563, "ECCENTRICITY": 0.0008196, "INCLINATION": 1.6785, "RA_OF_ASC_NODE": 74.7229, "ARG_OF_PERICENTER": 258.5641, "MEAN_ANOMALY": 83.1013, "EPHEMERIS_TYPE": 0, "CLASSIFICATION_TYPE": "U", "NORAD_CAT_ID": 44231, "ELEMENT_SET_NO": 999, "REV_AT_EPOCH": 2427, "BSTAR": 0, "MEAN_MOTION_DOT": -2.24e-06, "MEAN_MOTION_DDOT": 0}, "tle": {"line1": "1 44231U 19027A   25353.50999363 -.00000224  00000+0  00000+0 0  9992", "line2": "2 44231   1.6785  74.7229 0008196 258.5641  83.1013  1.00276563 24270"}}, "geometry": {"type": "Point", "coordinates": [19.103376586983284, -1.381800499254506]}}, {"type": "Feature", "properties": {"norad_id": 44337, "name": "BEIDOU-3 IGSO-2 (C39)", "group": "beidou", "lat": -11.091675807818284, "lon": -11.753469846947496, "alt_km": 35632.542416220516, "timestamp": "2025-12-21T09:37:22.920148+00:00", "meta": {"OBJECT_NAME": "BEIDOU-3 IGSO-2 (C39)", "OBJECT_ID": "2019-035A", "EPOCH": "2025-12-20T20:45:51.571008", "MEAN_MOTION": 1.00268938, "ECCENTRICITY": 0.00375986, "INCLINATION": 55.2283, "RA_OF_ASC_NODE": 160.43, "ARG_OF_PERICENTER": 202.2266, "MEAN_ANOMALY": 157.9019, "EPHEMERIS_TYPE": 0, "CLASSIFICATION_TYPE": "U", "NORAD_CAT_ID": 44337, "ELEMENT_SET_NO": 999, "REV_AT_EPOCH": 2388, "BSTAR": 0, "MEAN_MOTION_DOT": -6.9e-07, "MEAN_MOTION_DDOT": 0}, "tle": {"line1": "1 44337U 19035A   25354.86518022 -.00000069  00000+0  00000+0 0  9994", "line2": "2 44337  55.2283 160.4300 0037598 202.2266 157.9019  1.00268938 23884"}}, "geometry": {"type": "Point", "coordinates": [-11.753469846947496, -11.091675807818284]}}, {"type": "Feature", "properties": {"norad_id": 44542, "name": "BEIDOU-3 M24 (C46)", "group": "beidou", "lat": -51.140688048839124, "lon": 125.89510582635377, "alt_km": 21538.043638318617, "timestamp": "2025-12-21T09:37:22.920160+00:00", "meta": {"OBJECT_NAME": "BEIDOU-3 M24 (C46)", "OBJECT_ID": "2019-061A", "EPOCH": "2025-12-20T10:28:25.457664", "MEAN_MOTION": 1.86229474, "ECCENTRICITY": 0.00096021, "INCLINATION": 54.4004, "RA_OF_ASC_NODE": 188.7562, "ARG_OF_PERICENTER": 25.7193, "MEAN_ANOMALY": 334.3849, "EPHEMERIS_TYPE": 0, "CLASSIFICATION_TYPE": "U", "NORAD_CAT_ID": 44542, "ELEMENT_SET_NO": 999, "REV_AT_EPOCH": 4246, "BSTAR": 0, "MEAN_MOTION_DOT": 9.8e-07, "MEAN_MOTION_DDOT": 0}, "tle": {"line1": "1 44542U 19061A   25354.43640576  .00000098  00000+0  00000+0 0  9995", "line2": "2 44542  54.4004 188.7562 0009602  25.7193 334.3849  1.86229474 42462"}}, "geometry": {"type": "Point", "coordinates": [125.89510582635377, -51.140688048839124]}}]}